NORAD_CAT_ID,OBJECT_NAME,OBJECT_TYPE,EPOCH,MEAN_MOTION,ECCENTRICITY,INCLINATION,RA_OF_ASC_NODE,ARG_OF_PERICENTER,MEAN_ANOMALY,BSTAR,MEAN_MOTION_DOT,MEAN_MOTION_DDOT,TLE_LINE0,TLE_LINE1,TLE_LINE2,SEMIMAJOR_AXIS,PERIOD,APOGEE,PERIGEE,DECAYED
54081.0,STARLINK-5165,PAYLOAD,2023-01-01 17:21:50,15.08838785,0.0001443999999999,53.2164,155.0164,98.3468,261.7688,-0.00013628,-2.456e-05,0.0,0 STARLINK-5165,1 54081U 22136AG  23001.72350026 -.00002456  00000-0 -13628-3 0  9995,2 54081  53.2164 155.0164 0001444  98.3468 261.7688 15.08838785 11412,6917.884,95.438,540.748,538.75,0.0
54081.0,STARLINK-5165,PAYLOAD,2023-01-02 10:51:04,15.08845065,0.0001359,53.2171,151.7454,97.2693,262.8454,6.7825e-06,-1.8e-06,0.0,0 STARLINK-5165,1 54081U 22136AG  23002.45213119 -.00000180  00000-0  67825-5 0  9998,2 54081  53.2171 151.7454 0001359  97.2693 262.8454 15.08845065 12006,6917.865,95.437,540.67,538.79,0.0
54081.0,STARLINK-5165,PAYLOAD,2023-01-02 15:37:13,15.08848787,0.0001388,53.2174,150.8534,101.0099,259.1049,-1.2598e-05,-4.88e-06,0.0,0 STARLINK-5165,1 54081U 22136AG  23002.65084873 -.00000488  00000-0 -12598-4 0  9991,2 54081  53.2174 150.8534 0001388 101.0099 259.1049 15.08848787 11556,6917.854,95.437,540.679,538.758,0.0
54081.0,STARLINK-5165,PAYLOAD,2023-01-03 02:44:56,15.08834946,0.00015,53.2166,148.7718,96.1582,263.9581,5.1501e-06,-2.06e-06,0.0,0 STARLINK-5165,1 54081U 22136AG  23003.11453780 -.00000206  00000-0  51501-5 0  9995,2 54081  53.2166 148.7718 0001500  96.1582 263.9581 15.08834946 12102,6917.896,95.438,540.799,538.7230000000002,0.0
54081.0,STARLINK-5165,PAYLOAD,2023-01-03 09:06:28,15.08837463,0.0001386999999999,53.2174,147.5827,97.1326,262.9824,6.9763e-05,8.22e-06,0.0,0 STARLINK-5165,1 54081U 22136AG  23003.37949508  .00000822  00000-0  69763-4 0  9992,2 54081  53.2174 147.5827 0001387  97.1326 262.9824 15.08837463 11665,6917.888000000001,95.438,540.7130000000002,538.794,0.0
54081.0,STARLINK-5165,PAYLOAD,2023-01-04 08:57:15,15.08840259,0.0001141,53.2153,143.1208,93.1912,266.9211,-7.4103e-06,-4.06e-06,0.0,0 STARLINK-5165,1 54081U 22136AG  23004.37309661 -.00000406  00000-0 -74103-5 0  9998,2 54081  53.2153 143.1208 0001141  93.1912 266.9211 15.08840259 12293,6917.88,95.438,540.534,538.955,0.0
54081.0,STARLINK-5165,PAYLOAD,2023-01-05 08:48:01,15.08852379,0.0001054,53.2164,138.6617,92.8198,267.2915,0.00011188,1.494e-05,0.0,0 STARLINK-5165,1 54081U 22136AG  23005.36667952  .00001494  00000-0  11188-3 0  9996,2 54081  53.2164 138.6617 0001054  92.8198 267.2915 15.08852379 12441,6917.843000000003,95.437,540.437,538.9780000000002,0.0
54081.0,STARLINK-5165,PAYLOAD,2023-01-05 15:09:33,15.08853908,0.0001198,53.216,137.472,90.941,269.172,0.00010252,1.345e-05,0.0,0 STARLINK-5165,1 54081U 22136AG  23005.63163702  .00001345  00000-0  10252-3 0  9996,2 54081  53.2160 137.4720 0001198  90.9410 269.1720 15.08853908 12000,6917.8380000000025,95.437,540.5319999999998,538.874,0.0
54081.0,STARLINK-5165,PAYLOAD,2023-01-06 08:38:49,15.0883537,9.92e-05,53.2174,134.2027,73.6617,286.4484,-0.00015971,-2.828e-05,0.0,0 STARLINK-5165,1 54081U 22136AG  23006.36029821 -.00002828  00000-0 -15971-3 0  9992,2 54081  53.2174 134.2027 0000992  73.6617 286.4484 15.08835370 12594,6917.895,95.438,540.446,539.073,0.0
54081.0,STARLINK-5165,PAYLOAD,2023-01-07 18:01:55,15.08840826,0.0001119,53.2166,127.9555,83.676,276.436,-8.054399999999999e-05,-1.569e-05,0.0,0 STARLINK-5165,1 54081U 22136AG  23007.75133535 -.00001569  00000-0 -80544-4 0  9994,2 54081  53.2166 127.9555 0001119  83.6760 276.4360 15.08840826 12800,6917.8780000000015,95.438,540.5169999999998,538.969,0.0
54081.0,STARLINK-5165,PAYLOAD,2023-01-08 06:45:02,15.08816351,0.0001211,53.216,125.5767,82.0817,278.0313,4.3449e-06,-2.19e-06,0.0,0 STARLINK-5165,1 54081U 22136AG  23008.28127347 -.00000219  00000-0  43449-5 0  9991,2 54081  53.2160 125.5767 0001211  82.0817 278.0313 15.08816351 12882,6917.953,95.439,540.655,538.98,0.0
54081.0,STARLINK-5165,PAYLOAD,2023-01-08 14:41:57,15.0882234,0.0001465,53.2152,124.09,83.2021,276.9138,0.00015487,2.177e-05,0.0,0 STARLINK-5165,1 54081U 22136AG  23008.61246892  .00002177  00000-0  15487-3 0  9998,2 54081  53.2152 124.0900 0001465  83.2021 276.9138 15.08822340 12930,6917.934,95.439,540.813,538.786,0.0
54081.0,STARLINK-5165,PAYLOAD,2023-01-08 17:52:43,15.08822251,0.0001441999999999,53.2153,123.4956,82.0801,278.0355,0.00015014,2.101e-05,0.0,0 STARLINK-5165,1 54081U 22136AG  23008.74495074  .00002101  00000-0  15014-3 0  9993,2 54081  53.2153 123.4956 0001442  82.0801 278.0355 15.08822251 12477,6917.935,95.439,540.797,538.802,0.0
54081.0,STARLINK-5165,PAYLOAD,2023-01-09 14:32:44,15.08835949,0.0001193,53.2153,119.6293,75.1466,284.9659,8.5382e-05,1.071e-05,0.0,0 STARLINK-5165,1 54081U 22136AG  23009.60606937  .00001071  00000-0  85382-4 0  9992,2 54081  53.2153 119.6293 0001193  75.1466 284.9659 15.08835949 12607,6917.893,95.438,540.5830000000002,538.932,0.0
54081.0,STARLINK-5165,PAYLOAD,2023-01-09 17:43:30,15.08838482,0.0001226,53.2151,119.0346,76.4158,283.6971,0.00010511,1.385e-05,0.0,0 STARLINK-5165,1 54081U 22136AG  23009.73854763  .00001385  00000-0  10511-3 0  9997,2 54081  53.2151 119.0346 0001226  76.4158 283.6971 15.08838482 13101,6917.885,95.438,540.5980000000002,538.9019999999998,0.0
54081.0,STARLINK-5165,PAYLOAD,2023-01-10 08:01:59,15.08823501,0.0001219,53.2153,116.3577,85.9708,274.1423,9.8221e-05,1.275e-05,0.0,0 STARLINK-5165,1 54081U 22136AG  23010.33472101  .00001275  00000-0  98221-4 0  9990,2 54081  53.2153 116.3577 0001219  85.9708 274.1423 15.08823501 13199,6917.931,95.439,540.639,538.953,0.0
54081.0,STARLINK-5165,PAYLOAD,2023-01-10 12:48:09,15.08834142,0.0001232,53.2198,115.4686,92.0105,268.1028,3.6694e-05,2.96e-06,0.0,0 STARLINK-5165,1 54081U 22136AG  23010.53343808  .00000296  00000-0  36694-4 0  9991,2 54081  53.2198 115.4686 0001232  92.0105 268.1028 15.08834142 13225,6917.898,95.438,540.616,538.911,0.0
54081.0,STARLINK-5165,PAYLOAD,2023-01-11 12:38:55,15.0884285,0.0001283,53.216,111.0063,62.9889,297.1234,2.3863e-05,9.2e-07,0.0,0 STARLINK-5165,1 54081U 22136AG  23011.52703651  .00000092  00000-0  23863-4 0  9995,2 54081  53.2160 111.0063 0001283  62.9889 297.1234 15.08842850 12894,6917.871999999999,95.437,540.624,538.849,0.0
54081.0,STARLINK-5165,PAYLOAD,2023-01-11 23:46:37,15.08857987,7.979999999999999e-05,53.2151,108.9251,92.0004,268.1079,-0.00010777,-2.003e-05,0.0,0 STARLINK-5165,1 54081U 22136AG  23011.99070746 -.00002003  00000-0 -10777-3 0  9993,2 54081  53.2151 108.9251 0000798  92.0004 268.1079 15.08857987 13445,6917.825,95.436,540.242,539.138,0.0
54081.0,STARLINK-5165,PAYLOAD,2023-01-12 15:40:28,15.08839997,9.57e-05,53.2169,105.953,64.0411,296.068,0.00011676,1.571e-05,0.0,0 STARLINK-5165,1 54081U 22136AG  23012.65310855  .00001571  00000-0  11676-3 0  9991,2 54081  53.2169 105.9530 0000957  64.0411 296.0680 15.08839997 13549,6917.88,95.438,540.4069999999998,539.0830000000002,0.0
54081.0,STARLINK-5165,PAYLOAD,2023-01-12 23:37:25,15.08837094,0.0001028,53.2153,104.466,88.296,271.815,3.1461e-05,2.13e-06,0.0,0 STARLINK-5165,1 54081U 22136AG  23012.98431778  .00000213  00000-0  31461-4 0  9992,2 54081  53.2153 104.4660 0001028  88.2960 271.8150 15.08837094 13591,6917.889,95.438,540.465,539.043,0.0
54081.0,STARLINK-5165,PAYLOAD,2023-01-13 12:20:29,15.08848294,0.000104,53.2159,102.0858,91.8529,268.2583,1.7758e-05,-5e-08,0.0,0 STARLINK-5165,1 54081U 22136AG  23013.51423249 -.00000005  00000-0  17758-4 0  9999,2 54081  53.2159 102.0858 0001040  91.8529 268.2583 15.08848294 13678,6917.855,95.437,540.439,539.001,0.0
54081.0,STARLINK-5165,PAYLOAD,2023-01-14 05:49:44,15.08837585,0.0001184,53.217,98.8134,95.035,265.0777,-1.1961e-05,-4.78e-06,0.0,0 STARLINK-5165,1 54081U 22136AG  23014.24287980 -.00000478  00000-0 -11961-4 0  9995,2 54081  53.2170  98.8134 0001184  95.0350 265.0777 15.08837585 13780,6917.888000000001,95.438,540.572,538.934,0.0
54081.0,STARLINK-5165,PAYLOAD,2023-01-14 12:11:16,15.08847784,0.0001209,53.2162,97.6247,81.0967,279.0162,6.420300000000001e-05,7.34e-06,0.0,0 STARLINK-5165,1 54081U 22136AG  23014.50783118  .00000734  00000-0  64203-4 0  9998,2 54081  53.2162  97.6247 0001209  81.0967 279.0162 15.08847784 13820,6917.857,95.437,540.558,538.885,0.0
54081.0,STARLINK-5165,PAYLOAD,2023-01-15 05:40:32,15.08830703,0.000122,53.2168,94.3536,101.1732,258.9397,4.5718000000000005e-05,4.4e-06,0.0,0 STARLINK-5165,1 54081U 22136AG  23015.23648478  .00000440  00000-0  45718-4 0  9992,2 54081  53.2168  94.3536 0001220 101.1732 258.9397 15.08830703 13939,6917.909000000001,95.438,540.618,538.93,0.0
54081.0,STARLINK-5165,PAYLOAD,2023-01-15 21:34:23,15.08843902,0.000139,53.2178,91.3807,93.0667,267.0484,2.0364e-05,3.6e-07,0.0,0 STARLINK-5165,1 54081U 22136AG  23015.89887843  .00000036  00000-0  20364-4 0  9996,2 54081  53.2178  91.3807 0001390  93.0667 267.0484 15.08843902 13553,6917.868,95.437,540.695,538.7719999999999,0.0
54081.0,STARLINK-5165,PAYLOAD,2023-01-16 11:52:49,15.08864506,0.0001235,53.2175,88.7048,98.7347,261.3785,0.00018198,2.611e-05,0.0,0 STARLINK-5165,1 54081U 22136AG  23016.49501501  .00002611  00000-0  18198-3 0  9999,2 54081  53.2175  88.7048 0001235  98.7347 261.3785 15.08864506 14120,6917.805,95.436,540.525,538.816,0.0
54081.0,STARLINK-5165,PAYLOAD,2023-01-16 21:25:10,15.08831114,0.0001665,53.2173,86.9201,93.4881,266.6302,-0.00016291,-2.879e-05,0.0,0 STARLINK-5165,1 54081U 22136AG  23016.89248714 -.00002879  00000-0 -16291-3 0  9997,2 54081  53.2173  86.9201 0001665  93.4881 266.6302 15.08831114 14189,6917.908,95.438,540.924,538.621,0.0
54081.0,STARLINK-5165,PAYLOAD,2023-01-17 05:22:09,15.08792465,0.0003903,53.2177,85.4345,112.4555,247.6851,-0.00011606,-2.133e-05,0.0,0 STARLINK-5165,1 54081U 22136AG  23017.22371774 -.00002133  00000-0 -11606-3 0  9996,2 54081  53.2177  85.4345 0003903 112.4555 247.6851 15.08792465 14232,6918.026,95.441,542.591,537.191,0.0
